2025-135BL              
1 64586U 25135BL  25198.27215614  .00003543  00000+0  35429-3 0  9998
2 64586  97.7456 312.2800 0004957  22.1859 337.9574 14.92077397  3928
2025-135BM              
1 64587U 25135BM  25198.74165771  .00001694  00000+0  17243-3 0  9998
2 64587  97.7483 312.7436 0004827  34.3849 325.7681 14.92042645  3998
2025-135BN              
1 64588U 25135BN  25198.74047553  .00001909  00000+0  19319-3 0  9991
2 64588  97.7493 312.7460 0005120  37.2807 322.8766 14.92121081  3994
2025-135BP              
1 64589U 25135BP  25198.73945532  .00003109  00000+0  31055-3 0  9990
2 64589  97.7459 312.7450 0005357  24.4329 335.7143 14.92203832  3992
2025-135BQ              
1 64590U 25135BQ  25198.26943017  .00001505  00000+0  15316-3 0  9996
2 64590  97.7464 312.2864 0005810  20.9745 339.1712 14.92214094  3926
2025-135BR              
1 64591U 25135BR  25198.26808164  .00004215  00000+0  41742-3 0  9993
2 64591  97.7456 312.2862 0005827  25.2298 334.9205 14.92351916  3920
2025-135BS              
1 64592U 25135BS  25198.73639290  .00001549  00000+0  15680-3 0  9997
2 64592  97.7507 312.7513 0006258  41.9763 318.1935 14.92374569  3997
STARLINK-34280          
1 64594U 25137A   25199.91668981 -.01464933  00000+0 -16265-1 0  9992
2 64594  53.1594 353.6890 0000969  85.9974 357.0837 15.65102420  4819
STARLINK-34517          
1 64595U 25137B   25199.91668981 -.01464856  00000+0 -16264-1 0  9996
2 64595  53.1591 353.6847 0000968  89.3807 355.6165 15.65102506  4768
STARLINK-34510          
1 64596U 25137C   25199.91668981 -.01461826  00000+0 -16228-1 0  9991
2 64596  53.1589 353.6816 0001058  75.3761  11.5402 15.65099414  4762
STARLINK-34486          
1 64597U 25137D   25199.91668981 -.01405173  00000+0 -15572-1 0  9996
2 64597  53.1591 353.6763 0001041  69.9722  18.9225 15.65033058  4761
STARLINK-34463          
1 64598U 25137E   25199.91668981 -.01463993  00000+0 -16254-1 0  9999
2 64598  53.1596 353.6723 0001181  84.3411   6.4092 15.65099564  4818
STARLINK-34294          
1 64599U 25137F   25199.91668981 -.01467675  00000+0 -16297-1 0  9998
2 64599  53.1594 353.6686 0001162  80.7353  11.9285 15.65103668  4815
STARLINK-34504          
1 64600U 25137G   25199.91668981 -.01464863  00000+0 -16263-1 0  9990
2 64600  53.1594 353.6642 0001238  84.7353   9.8453 15.65101746  4816
STARLINK-34508          
1 64601U 25137H   25199.91668981 -.01464146  00000+0 -16255-1 0  9996
2 64601  53.1596 353.6607 0001002  79.5299  16.9666 15.65102543  4811
STARLINK-34435          
1 64602U 25137J   25199.91668981 -.01464584  00000+0 -16260-1 0  9999
2 64602  53.1593 353.6566 0001212  82.3981  16.0172 15.65101288  4814
STARLINK-34475          
1 64603U 25137K   25199.91668981 -.01420566  00000+0 -15746-1 0  9990
2 64603  53.1594 353.6522 0000930 106.9898 353.3747 15.65058360  4765
STARLINK-34488          
1 64604U 25137L   25199.91668981 -.01463940  00000+0 -16254-1 0  9999
2 64604  53.1595 353.6483 0001053  79.3005  22.9513 15.65099716  4819
STARLINK-34516          
1 64605U 25137M   25199.91668981 -.01468507  00000+0 -16308-1 0  9994
2 64605  53.1594 353.6443 0001024  74.1360  30.0304 15.65103838  4910
STARLINK-34073          
1 64606U 25137N   25199.91668981 -.01468647  00000+0 -16309-1 0  9991
2 64606  53.1593 353.6399 0001109  77.4115  28.6709 15.65104179  4706
STARLINK-34532          
1 64607U 25137P   25199.91668981 -.01467005  00000+0 -16289-1 0  9996
2 64607  53.1594 353.6361 0001074  78.2625  29.7356 15.65104000  4818
STARLINK-34519          
1 64608U 25137Q   25199.91668981 -.01463845  00000+0 -16252-1 0  9995
2 64608  53.1594 353.6323 0001197  80.4107  29.5081 15.65099689  4812
STARLINK-34513          
1 64609U 25137R   25199.91668981 -.01464985  00000+0 -16265-1 0  9996
2 64609  53.1593 353.6284 0001158  78.0511  33.7824 15.65101718  4917
STARLINK-34569          
1 64610U 25137S   25199.91668981 -.01463903  00000+0 -16252-1 0  9993
2 64610  53.1597 353.6241 0001197  81.6037  32.1469 15.65100788  4815
STARLINK-34494          
1 64611U 25137T   25199.91668981 -.01462542  00000+0 -16236-1 0  9994
2 64611  53.1592 353.6198 0001106  74.4446  41.2229 15.65100319  4811
STARLINK-34521          
1 64612U 25137U   25199.91668981 -.01464840  00000+0 -16263-1 0  9998
2 64612  53.1594 353.6159 0001256  81.6020  35.9821 15.65101141  4817
STARLINK-34500          
1 64613U 25137V   25199.91668981 -.01466762  00000+0 -16287-1 0  9990
2 64613  53.1595 353.6118 0001184  81.5009  38.0015 15.65101481  4917
STARLINK-34440          
1 64614U 25137W   25199.91668981 -.01460060  00000+0 -16206-1 0  9997
2 64614  53.1594 353.6085 0001223  70.0790  51.3404 15.65098198  4813
STARLINK-34469          
1 64615U 25137X   25199.91668981 -.01467357  00000+0 -16293-1 0  9990
2 64615  53.1593 353.6039 0001089  76.3788  46.9536 15.65104418  4817
STARLINK-34413          
1 64616U 25137Y   25199.91668981 -.01462927  00000+0 -16241-1 0  9992
2 64616  53.1592 353.6002 0001097  78.6087  46.6436 15.65100029  4868
STARLINK-34417          
1 64617U 25137Z   25199.91668981  .00050571  00000+0  37366-3 0  9991
2 64617  53.1587 353.3409 0000975  71.2698 180.2348 15.72489728  4919
STARLINK-34415          
1 64618U 25137AA  25199.91668981 -.01462178  00000+0 -16231-1 0  9991
2 64618  53.1596 353.5926 0001105  72.9717  56.1122 15.65101089  4815
STARLINK-34416          
1 64619U 25137AB  25199.91668981 -.01460953  00000+0 -16216-1 0  9994
2 64619  53.1599 353.5886 0001215  80.8771  50.1243 15.65099874  4810
STARLINK-34414          
1 64620U 25137AC  25199.91668981 -.01463470  00000+0 -16248-1 0  9998
2 64620  53.1597 353.5842 0001094  79.2737  53.6473 15.65099638  4812
HAWK-12C                
1 64621U 25138A   25199.95510105  .00003090  00000+0  16962-3 0  9998
2 64621  97.4305 204.0575 0013886 215.7992 144.2310 15.14800836  3366
HAWK-12B                
1 64622U 25138B   25199.75605324  .00002278  00000+0  12646-3 0  9997
2 64622  97.4390 203.9087 0013021 210.1347 149.9137 15.14673890  3335
HAWK-12A                
1 64623U 25138C   25199.95370633  .00002875  00000+0  15895-3 0  9994
2 64623  97.4364 204.0815 0014314 210.0492 149.9920 15.14598882  3364
KESTREL-0A              
1 64624U 25138D   25199.74637528  .00001802  00000+0  98902-4 0  9991
2 64624  97.4366 203.9003 0015446 203.1563 156.8976 15.15323174  3328
STARLINK-34464          
1 64664U 25139A   25199.91668981 -.01595918  00000+0 -36714-1 0  9991
2 64664  53.1597 136.6168 0001517  86.2674 142.0103 15.45282428  4484
STARLINK-34555          
1 64665U 25139B   25199.91668981 -.01609500  00000+0 -34062-1 0  9999
2 64665  53.1590 136.5990 0001412  98.4249 138.7197 15.47708708  4387
STARLINK-34390          
1 64666U 25139C   25199.91668981 -.01635863  00000+0 -34674-1 0  9990
2 64666  53.1593 136.5949 0001595 103.0198 136.0278 15.47714921  4546
STARLINK-34382          
1 64667U 25139D   25199.91668981 -.01593246  00000+0 -37148-1 0  9998
2 64667  53.1598 136.6085 0001511  82.5676 149.7614 15.44887271  4488
STARLINK-34395          
1 64668U 25139E   25199.91668981 -.01480450  00000+0 -28995-1 0  9991
2 64668  53.1594 136.5846 0001249  98.5694 145.5981 15.49651427  4482
STARLINK-34394          
1 64669U 25139F   25199.91668981 -.01476578  00000+0 -28923-1 0  9999
2 64669  53.1595 136.5810 0001309  92.6824 153.4129 15.49639813  4489
STARLINK-34287          
1 64670U 25139G   25199.91668981 -.00058694  00000+0 -10542-2 0  9994
2 64670  53.1592 136.5766 0000887  98.9087 149.1529 15.49335998  4481
STARLINK-34365          
1 64671U 25139H   25199.91668981  .00028108  00000+0  51194-3 0  9999
2 64671  53.1592 136.5726 0000896 104.2225 145.7650 15.49290608  4545
STARLINK-34442          
1 64672U 25139J   25199.91668981  .00027501  00000+0  50110-3 0  9993
2 64672  53.1592 136.5685 0000983  90.1882 161.7157 15.49290591  4483
STARLINK-34288          
1 64673U 25139K   25199.91668981 -.00051338  00000+0 -91985-3 0  9996
2 64673  53.1590 136.5646 0001013  96.8773 156.9267 15.49346469  4480
STARLINK-34539          
1 64674U 25139L   25199.91668981  .00029571  00000+0  53810-3 0  9994
2 64674  53.1591 136.5600 0001036  89.5833 166.1569 15.49289225  4386
STARLINK-34590          
1 64675U 25139M   25199.91668981  .00028274  00000+0  51478-3 0  9992
2 64675  53.1591 136.5562 0000901  99.5053 158.1321 15.49297505  4487
STARLINK-34573          
1 64676U 25139N   25199.91668981 -.00110250  00000+0 -19966-2 0  9996
2 64676  53.1593 136.5523 0001531 106.5707 152.9292 15.49388267  4487
STARLINK-34605          
1 64677U 25139P   25199.91668981  .00028279  00000+0  51503-3 0  9998
2 64677  53.1591 136.5482 0001138  91.9058 169.5830 15.49288945  4483
STARLINK-34525          
1 64678U 25139Q   25199.91668981  .00029461  00000+0  53613-3 0  9997
2 64678  53.1592 136.5443 0000795  98.2325 165.1712 15.49289167  4485
STARLINK-34489          
1 64679U 25139R   25199.91668981  .00025543  00000+0  46612-3 0  9996
2 64679  53.1591 136.5400 0001034  87.2937 178.0284 15.49290424  4487
STARLINK-34502          
1 64680U 25139S   25199.91668981  .00029644  00000+0  53937-3 0  9992
2 64680  53.1592 136.5361 0001004  95.1132 172.1209 15.49290525  4482
STARLINK-34553          
1 64681U 25139T   25199.91668981 -.00112244  00000+0 -20333-2 0  9997
2 64681  53.1592 136.5319 0001595 107.8276 161.2570 15.49388997  4482
STARLINK-34551          
1 64682U 25139U   25199.91668981 -.02083115  00000+0 -33437-1 0  9992
2 64682  53.1604 136.0940 0001325  74.8360  51.2405 15.55662093  4484
STARLINK-34550          
1 64683U 25139V   25199.91668981  .00027645  00000+0  50360-3 0  9991
2 64683  53.1591 136.5241 0000963  93.8062 179.1735 15.49294695  4484
STARLINK-34485          
1 64684U 25139W   25199.91668981  .00023193  00000+0  42409-3 0  9991
2 64684  53.1591 136.5201 0001094 102.8374 172.0730 15.49290826  4483
